NAVSTAR 77 (USA 289)    
1 43873U 18109A   23318.89301748  .00000079  00000+0  00000+0 0  9995
2 43873  55.2188 129.5373 0027264 189.7946 305.7712  2.00571149 36060
